NOAA 15                 
1 25338U 98030A   24304.52277064  .00000840  00000+0  36443-3 0  9991
2 25338  98.5587 328.7759 0009200 291.4792  68.5408 14.26770696376736
NOAA 18                 
1 28654U 05018A   24304.49874925  .00000894  00000+0  49900-3 0  9995
2 28654  98.8648  20.2841 0014749  43.2700 316.9628 14.13394348  2375
NOAA 19                 
1 33591U 09005A   24304.46971956  .00000786  00000+0  44409-3 0  9999
2 33591  99.0310   1.6018 0012829 270.5737  89.3964 14.13175784810733
METOP-B                 
1 38771U 12049A   24304.45979004  .00000750  00000+0  36178-3 0  9992
2 38771  98.6117 358.5388 0001384  86.9640 273.1695 14.21562610628769
SARAL                   
1 39086U 13009A   24303.95830338  .00000679  00000+0  26630-3 0  9991
2 39086  98.5506 127.2457 0000967 223.6005 136.5103 14.32558543610375
METOP-C                 
1 43689U 18087A   24304.42859042  .00000735  00000+0  35585-3 0  9994
2 43689  98.7077   2.0151 0002426  75.9443 284.2004 14.21492447310333
ANGELS                  
1 44876U 19092D   24303.99089175  .00021437  00000+0  72078-3 0  9993
2 44876  97.4677 133.0453 0008440 194.3689 165.7313 15.30801794269951
OTB-3-GAZELLE           
1 54023U 22127A   24304.40998431  .00000854  00000+0  27150-3 0  9993
2 54023  98.3539 295.8063 0013162 178.1546 181.9694 14.42287799108618
EOS-6 (OCEANSAT-3)      
1 54361U 22158A   24304.54975165  .00002291  00000+0  64227-3 0  9999
2 54361  98.3551  39.7636 0001313 101.4645 258.6695 14.46956783101843
